STARLINK-31501          
1 59359U 24060M   25081.73800205 -.00049421  00000+0 -17817-2 0  9991
2 59359  43.0045  87.7347 0002045 261.9356  98.1264 15.27882598 56228
STARLINK-31549          
1 59360U 24060N   25081.58335648  .00037417  00000+0  13299-2 0  9990
2 59360  43.0000  88.1346 0001038 288.6657 136.7066 15.28370635 56208
STARLINK-31560          
1 59361U 24060P   25081.73153291 -.00004301  00000+0 -14693-3 0  9998
2 59361  43.0037  87.6802 0000737 301.1026  58.9753 15.27570362 56224
STARLINK-31571          
1 59362U 24060Q   25081.73477171  .00002166  00000+0  86073-4 0  9992
2 59362  43.0027  87.7034 0000710 240.3418 119.7363 15.28407444 56226
STARLINK-31553          
1 59363U 24060R   25081.31902186  .00002999  00000+0  79024-4 0  9998
2 59363  43.0020  88.0002 0001645 280.6159  79.4513 15.40704476 56190
STARLINK-31547          
1 59364U 24060S   25081.21639546 -.00003230  00000+0 -70083-4 0  9992
2 59364  43.0016  89.8296 0002562 314.7328  45.3320 15.40689597 56167
STARLINK-31537          
1 59365U 24060T   25081.41482959  .00006730  00000+0  25345-3 0  9995
2 59365  43.0027  89.6045 0000711 269.1824  90.8946 15.27633797 56185
STARLINK-31451          
1 59366U 24060U   25081.91667824  .00087737  00000+0  30819-2 0  9994
2 59366  43.0000  86.2964 0001531 243.6870 197.5372 15.28400924 56261
STARLINK-31428          
1 59367U 24060V   25081.70582710 -.00000015  00000+0  89687-5 0  9997
2 59367  42.9968  87.4868 0001163 248.8745 111.1982 15.27568092 56234
STARLINK-31419          
1 59368U 24060W   25081.71229691 -.00097922  00000+0 -35747-2 0  9994
2 59368  42.9969  87.5337 0001017 273.6241  86.4495 15.27775812 56236
STARLINK-31583          
1 59369U 24060X   25081.35500236  .00001301  00000+0  38394-4 0  9999
2 59369  43.0053  89.1540 0001262 265.9958  94.0754 15.40699098 56181
STARLINK-31461          
1 59370U 24060Y   25081.28346645  .00007569  00000+0  18848-3 0  9998
2 59370  43.0025  89.4724 0001181 240.3510 119.7229 15.40668546 56119
STARLINK-31641          
1 59374U 24062A   25081.33131069  .00000804  00000+0  39250-4 0  9998
2 59374  53.1598  95.1881 0000877  91.0519 269.0582 15.30204569 55670
STARLINK-31430          
1 59375U 24062B   25081.32393688  .00000786  00000+0  38680-4 0  9990
2 59375  53.1605  95.1381 0001200  88.1859 271.9279 15.30182907 55687
STARLINK-31695          
1 59376U 24062C   25081.72361037  .00003709  00000+0  13727-3 0  9990
2 59376  53.1585  90.5259 0001315  92.8659 267.2492 15.30208245 55628
STARLINK-31716          
1 59377U 24062D   25081.91667824  .00145600  00000+0  31075-2 0  9997
2 59377  53.1612  45.9141 0001167 121.2441  58.3381 15.43878846 56435
STARLINK-31710          
1 59378U 24062E   25081.34229377  .00005588  00000+0  20080-3 0  9997
2 59378  53.1595  92.4076 0001243  76.3552 283.7587 15.30174655 55689
STARLINK-31698          
1 59379U 24062F   25081.72044736  .00002664  00000+0  10202-3 0  9991
2 59379  53.1615  90.5170 0001406  82.6427 277.4733 15.30202453 55804
STARLINK-31680          
1 59380U 24062G   25081.72215170  .00002028  00000+0  80572-4 0  9997
2 59380  53.1626  93.3591 0001497 110.9155 249.2006 15.30202703 55414
STARLINK-31713          
1 59381U 24062H   25081.44821900  .00002299  00000+0  89711-4 0  9995
2 59381  53.1597  94.4921 0001343 110.8332 249.2813 15.30208719 55663
STARLINK-31705          
1 59382U 24062J   25081.73100712  .00003560  00000+0  13228-3 0  9990
2 59382  53.1604  90.5682 0001168  82.1410 277.9724 15.30196753 55626
STARLINK-31709          
1 59383U 24062K   25081.42677750  .00064904  00000+0  15940-2 0  9999
2 59383  53.1586  89.3907 0004885  52.2923 307.8524 15.40081241 55737
STARLINK-31715          
1 59384U 24062L   25081.32223211  .00006975  00000+0  24743-3 0  9994
2 59384  53.1607  92.2880 0001996  85.0138 275.1091 15.30194869 55722
STARLINK-31717          
1 59385U 24062M   25081.41392479  .00004799  00000+0  17402-3 0  9994
2 59385  53.1608  92.1392 0001382  93.2743 266.8416 15.30207502 55720
STARLINK-31688          
1 59386U 24062N   25081.31442267  .00003334  00000+0  12464-3 0  9992
2 59386  53.1600  95.0793 0001237  78.5742 281.5397 15.30203837 55644
STARLINK-31714          
1 59387U 24062P   25081.74372417  .00112816  00000+0  37310-2 0  9991
2 59387  53.1605  90.6457 0001569  98.8328 261.2851 15.30482637 55626
STARLINK-31643          
1 59388U 24062Q   25081.73734077  .00000720  00000+0  36434-4 0  9993
2 59388  53.1601  90.6051 0001329  97.2444 262.8708 15.30186939 55803
STARLINK-31647          
1 59389U 24062R   25081.76426014  .00011289  00000+0  39288-3 0  9997
2 59389  53.1610  92.9030 0001065  95.3153 264.7969 15.30185797 55776
STARLINK-31649          
1 59390U 24062S   25081.33488215  .00001275  00000+0  55160-4 0  9995
2 59390  53.1600  92.3607 0001256 105.9058 254.2081 15.30212146 55728
STARLINK-31644          
1 59391U 24062T   25081.31126050  .00001113  00000+0  49684-4 0  9995
2 59391  53.1593  95.0565 0001421  90.3118 269.8045 15.30208372 55684
STARLINK-31626          
1 59392U 24062U   25081.31906941 -.00000685  00000+0 -11004-4 0  9991
2 59392  53.1614  92.2677 0001201  88.0670 272.0468 15.30186913 55721
STARLINK-31443          
1 59393U 24062V   25081.69566738  .00017040  00000+0  58498-3 0  9997
2 59393  53.1592  78.0916 0001227  88.2346 271.8795 15.30264239 55958
STARLINK-31607          
1 59394U 24062W   25081.71727924  .00004500  00000+0  16393-3 0  9992
2 59394  53.1587  90.4816 0001214  82.0327 278.0812 15.30206868 55804
STARLINK-31608          
1 59397U 24062X   25081.28962867  .00002067  00000+0  81918-4 0  9996
2 59397  53.1597  92.7861 0001816 102.9851 257.1352 15.30200090 55667
STARLINK-31534          
1 59398U 24064A   25081.73754008  .00004619  00000+0  17710-3 0  9998
2 59398  42.9998 243.4392 0000279 235.5066 124.5759 15.27606699 55340
STARLINK-31544          
1 59399U 24064B   25081.78892222  .00004682  00000+0  17919-3 0  9996
2 59399  43.0011 243.8219 0001432 269.7776  90.2912 15.27649014 55405
STARLINK-31545          
1 59400U 24064C   25081.81452264  .00000756  00000+0  37005-4 0  9998
2 59400  42.9975 243.1578 0000765 292.8369  67.2401 15.27570629 55412
STARLINK-31507          
1 59401U 24064D   25081.82091287  .00005146  00000+0  19623-3 0  9997
2 59401  43.0009 243.1977 0001203 271.4463  88.6251 15.27610444 55355
STARLINK-31543          
1 59402U 24064E   25081.84662244  .00004488  00000+0  17240-3 0  9998
2 59402  43.0023 243.3912 0002073 276.1637  83.8979 15.27605807 55412
STARLINK-31366          
1 59403U 24064F   25081.50556568  .00002878  00000+0  11403-3 0  9999
2 59403  43.0044 245.1318 0001237 244.4105 115.6619 15.27588596 55369
STARLINK-31374          
1 59404U 24064G   25081.91667824  .00152185  00000+0  22687-2 0  9995
2 59404  42.9985 201.5933 0001360 301.1477 144.6104 15.53826206 55689
STARLINK-31400          
1 59405U 24064H   25081.74138563  .00003104  00000+0  12213-3 0  9991
2 59405  43.0014 243.4598 0002017 282.4672  77.5954 15.27623716 55404
STARLINK-31391          
1 59406U 24064J   25081.81063163  .00005868  00000+0  22241-3 0  9994
2 59406  42.9994 243.1225 0000747 265.1747  94.9019 15.27603951 55418
STARLINK-31387          
1 59407U 24064K   25081.85046896  .00005218  00000+0  19884-3 0  9991
2 59407  43.0027 243.4198 0001575 279.7251  80.3423 15.27611002 55415
STARLINK-31396          
1 59409U 24064M   25081.83368999  .00004610  00000+0  11753-3 0  9994
2 59409  43.0024 238.1022 0002031 287.5083  72.5551 15.40709084 55417
STARLINK-31412          
1 59410U 24064N   25081.50171507  .00003722  00000+0  14472-3 0  9991
2 59410  43.0045 245.1044 0001767 290.2853  69.7809 15.27583207 55365
STARLINK-31483          
1 59411U 24064P   25081.84018946  .00003265  00000+0  12795-3 0  9994
2 59411  43.0007 243.3417 0001554 278.3373  81.7302 15.27629089 55413
STARLINK-31568          
1 59412U 24064Q   25081.77738919  .00009661  00000+0  35977-3 0  9999
2 59412  43.0025 243.7306 0001686 285.9004  74.1662 15.27614370 55407
STARLINK-31615          
1 59413U 24064R   25081.79785396 -.00001409  00000+0 -26485-4 0  9992
2 59413  43.0003 237.8114 0001284 275.2305  84.8405 15.40695944 55476
STARLINK-31457          
1 59414U 24064S   25081.72939724 -.00117571  00000+0 -29452-2 0  9995
2 59414  43.0024 237.2894 0001080 288.5678  71.5060 15.39718197 55477
STARLINK-31398          
1 59415U 24064T   25081.82476569  .00005664  00000+0  21494-3 0  9996
2 59415  43.0004 243.2260 0001179 303.4276  56.6463 15.27617269 55410
STARLINK-31399          
1 59416U 24064U   25081.81835537  .00006035  00000+0  22844-3 0  9993
2 59416  42.9985 243.1750 0001372 282.4971  77.5727 15.27610391 55417
STARLINK-31401          
1 59417U 24064V   25081.82474046 -.00001382  00000+0 -25848-4 0  9999
2 59417  43.0033 238.0338 0001556 275.1820  84.8859 15.40681251 55263
STARLINK-31414          
1 59418U 24064W   25081.83633104  .00004819  00000+0  18436-3 0  9993
2 59418  43.0042 243.3154 0001611 278.8169  81.2500 15.27612090 55418
STARLINK-31415          
1 59419U 24064X   25081.73130643 -.00001940  00000+0 -61022-4 0  9997
2 59419  43.0029 244.2494 0001897 281.3006  78.7633 15.27565415 55399
STARLINK-31466          
1 59420U 24064Y   25081.85818225  .00005791  00000+0  21967-3 0  9990
2 59420  43.0001 243.4798 0001329 192.2775 167.8045 15.27597949 55419
STARLINK-11087 [DTC]    
1 59421U 24065A   25081.86822233  .00001958  00000+0  21014-4 0  9992
2 59421  53.1596  28.3846 0001568  88.5946 271.5252 15.69718535 56255
STARLINK-11090 [DTC]    
1 59422U 24065B   25081.15315383  .00009010  00000+0  79090-4 0  9992
2 59422  53.1568  31.7423 0001216 108.2694 251.8456 15.69727420 56164
STARLINK-11093 [DTC]    
1 59423U 24065C   25081.85842938 -.00000406  00000+0  15088-5 0  9990
2 59423  53.1597  28.3132 0001209  78.1252 281.9901 15.69711365 56253
